CTC2_L_00405001-01
1 43615U 24945QY  26070.40847222  .00000000  00000+0  00000-0 0  9996
2 43615  95.0000   0.0000 0000000   0.0000   0.0000 12.77881384    15
CTC2_L_00405001-02
1 43616U 24340CV  26070.40847222  .00000000  00000+0  00000-0 0  9996
2 43616  95.0000   0.0000 0000000   0.0000  90.0000 12.77881384    15
CTC2_L_00405001-03
1 43617U 26104ZI  26070.40847222  .00000000  00000+0  00000-0 0  9997
2 43617  95.0000   0.0000 0000000   0.0000 180.0000 12.77881384    16
CTC2_L_00405001-04
1 43618U 26311QG  26070.40847222  .00000000  00000+0  00000-0 0  9998
2 43618  95.0000   0.0000 0000000   0.0000 270.0000 12.77881384    17
CTC2_L_00405002-01
1 43619U 25048EO  26070.40847222  .00000000  00000+0  00000-0 0  9995
2 43619  95.0000  12.0000 0000000   0.0000  12.0000 12.77881384    15
CTC2_L_00405002-02
1 43620U 22637UY  26070.40847222  .00000000  00000+0  00000-0 0  9998
2 43620  95.0000  12.0000 0000000   0.0000 102.0000 12.77881384    17
CTC2_L_00405002-03
1 43621U 25545FC  26070.40847222  .00000000  00000+0  00000-0 0  9990
2 43621  95.0000  12.0000 0000000   0.0000 192.0000 12.77881384    17
CTC2_L_00405002-04
1 43622U 23541AI  26070.40847222  .00000000  00000+0  00000-0 0  9995
2 43622  95.0000  12.0000 0000000   0.0000 282.0000 12.77881384    18
CTC2_L_00405003-01
1 43623U 26014EZ  26070.40847222  .00000000  00000+0  00000-0 0  9994
2 43623  95.0000  24.0000 0000000   0.0000  24.0000 12.77881384    16
CTC2_L_00405003-02
1 43624U 25177TU  26070.40847222  .00000000  00000+0  00000-0 0  9994
2 43624  95.0000  24.0000 0000000   0.0000 114.0000 12.77881384    17
CTC2_L_00405003-03
1 43625U 26246PL  26070.40847222  .00000000  00000+0  00000-0 0  9993
2 43625  95.0000  24.0000 0000000   0.0000 204.0000 12.77881384    18
CTC2_L_00405003-04
1 43626U 24739RC  26070.40847222  .00000000  00000+0  00000-0 0  9999
2 43626  95.0000  24.0000 0000000   0.0000 294.0000 12.77881384    18
CTC2_L_00405004-01
1 43627U 24001TM  26070.40847222  .00000000  00000+0  00000-0 0  9992
2 43627  95.0000  36.0000 0000000   0.0000  36.0000 12.77881384    16
CTC2_L_00405004-02
1 43628U 24897WC  26070.40847222  .00000000  00000+0  00000-0 0  9996
2 43628  95.0000  36.0000 0000000   0.0000 126.0000 12.77881384    17
CTC2_L_00405004-03
1 43629U 22309ZB  26070.40847222  .00000000  00000+0  00000-0 0  9993
2 43629  95.0000  36.0000 0000000   0.0000 216.0000 12.77881384    18
CTC2_L_00405004-04
1 43630U 25567AX  26070.40847222  .00000000  00000+0  00000-0 0  9994
2 43630  95.0000  36.0000 0000000   0.0000 306.0000 12.77881384    10
CTC2_L_00405005-01
1 43631U 22755CJ  26070.40847222  .00000000  00000+0  00000-0 0  9991
2 43631  95.0000  48.0000 0000000   0.0000  48.0000 12.77881384    17
CTC2_L_00405005-02
1 43632U 23089JV  26070.40847222  .00000000  00000+0  00000-0 0  9993
2 43632  95.0000  48.0000 0000000   0.0000 138.0000 12.77881384    18
CTC2_L_00405005-03
1 43633U 22550PG  26070.40847222  .00000000  00000+0  00000-0 0  9996
2 43633  95.0000  48.0000 0000000   0.0000 228.0000 12.77881384    19
CTC2_L_00405005-04
1 43634U 22033RK  26070.40847222  .00000000  00000+0  00000-0 0  9993
2 43634  95.0000  48.0000 0000000   0.0000 318.0000 12.77881384    10
CTC2_L_00405006-01
1 43635U 24153IT  26070.40847222  .00000000  00000+0  00000-0 0  9999
2 43635  95.0000  60.0000 0000000   0.0000  60.0000 12.77881384    19
CTC2_L_00405006-02
1 43636U 24134EI  26070.40847222  .00000000  00000+0  00000-0 0  9999
2 43636  95.0000  60.0000 0000000   0.0000 150.0000 12.77881384    10
CTC2_L_00405006-03
1 43637U 22267WF  26070.40847222  .00000000  00000+0  00000-0 0  9995
2 43637  95.0000  60.0000 0000000   0.0000 240.0000 12.77881384    11
CTC2_L_00405006-04
1 43638U 24508GA  26070.40847222  .00000000  00000+0  00000-0 0  9996
2 43638  95.0000  60.0000 0000000   0.0000 330.0000 12.77881384    12
CTC2_L_00405007-01
1 43639U 22415TJ  26070.40847222  .00000000  00000+0  00000-0 0  9992
2 43639  95.0000  72.0000 0000000   0.0000  72.0000 12.77881384    19
CTC2_L_00405007-02
1 43640U 25850DU  26070.40847222  .00000000  00000+0  00000-0 0  9990
2 43640  95.0000  72.0000 0000000   0.0000 162.0000 12.77881384    11
CTC2_L_00405007-03
1 43641U 22491AZ  26070.40847222  .00000000  00000+0  00000-0 0  9999
2 43641  95.0000  72.0000 0000000   0.0000 252.0000 12.77881384    12
CTC2_L_00405007-04
1 43642U 23659Q   26070.40847222  .00000000  00000+0  00000-0 0  9997
2 43642  95.0000  72.0000 0000000   0.0000 342.0000 12.77881384    13
CTC2_L_00405008-01
1 43643U 22619H   26070.40847222  .00000000  00000+0  00000-0 0  9993
2 43643  95.0000  84.0000 0000000   0.0000  84.0000 12.77881384    10
CTC2_L_00405008-02
1 43644U 22228UQ  26070.40847222  .00000000  00000+0  00000-0 0  9990
2 43644  95.0000  84.0000 0000000   0.0000 174.0000 12.77881384    11
CTC2_L_00405008-03
1 43645U 25183QJ  26070.40847222  .00000000  00000+0  00000-0 0  9994
2 43645  95.0000  84.0000 0000000   0.0000 264.0000 12.77881384    12
CTC2_L_00405008-04
1 43646U 23008YF  26070.40847222  .00000000  00000+0  00000-0 0  9999
2 43646  95.0000  84.0000 0000000   0.0000 354.0000 12.77881384    13
CTC2_L_00405009-01
1 43647U 26624OL  26070.40847222  .00000000  00000+0  00000-0 0  9997
2 43647  95.0000  96.0000 0000000   0.0000  96.0000 12.77881384    10
CTC2_L_00405009-02
1 43648U 26933MM  26070.40847222  .00000000  00000+0  00000-0 0  9991
2 43648  95.0000  96.0000 0000000   0.0000 186.0000 12.77881384    11
CTC2_L_00405009-03
1 43649U 25290JO  26070.40847222  .00000000  00000+0  00000-0 0  9997
2 43649  95.0000  96.0000 0000000   0.0000 276.0000 12.77881384    12
CTC2_L_00405009-04
1 43650U 23464TS  26070.40847222  .00000000  00000+0  00000-0 0  9990
2 43650  95.0000  96.0000 0000000   0.0000   6.0000 12.77881384    15
CTC2_L_00405010-01
1 43651U 24157RO  26070.40847222  .00000000  00000+0  00000-0 0  9991
2 43651  95.0000 108.0000 0000000   0.0000 108.0000 12.77881384    13
CTC2_L_00405010-02
1 43652U 25806VM  26070.40847222  .00000000  00000+0  00000-0 0  9994
2 43652  95.0000 108.0000 0000000   0.0000 198.0000 12.77881384    13
CTC2_L_00405010-03
1 43653U 26139CF  26070.40847222  .00000000  00000+0  00000-0 0  9995
2 43653  95.0000 108.0000 0000000   0.0000 288.0000 12.77881384    14
CTC2_L_00405010-04
1 43654U 22811RC  26070.40847222  .00000000  00000+0  00000-0 0  9999
2 43654  95.0000 108.0000 0000000   0.0000  18.0000 12.77881384    16
CTC2_L_00405011-01
1 43655U 23122RR  26070.40847222  .00000000  00000+0  00000-0 0  9996
2 43655  95.0000 120.0000 0000000   0.0000 120.0000 12.77881384    15
CTC2_L_00405011-02
1 43656U 26191YK  26070.40847222  .00000000  00000+0  00000-0 0  9996
2 43656  95.0000 120.0000 0000000   0.0000 210.0000 12.77881384    16
CTC2_L_00405011-03
1 43657U 22966UZ  26070.40847222  .00000000  00000+0  00000-0 0  9993
2 43657  95.0000 120.0000 0000000   0.0000 300.0000 12.77881384    17
CTC2_L_00405011-04
1 43658U 26502SR  26070.40847222  .00000000  00000+0  00000-0 0  9994
2 43658  95.0000 120.0000 0000000   0.0000  30.0000 12.77881384    18
CTC2_L_00405012-01
1 43659U 23628TI  26070.40847222  .00000000  00000+0  00000-0 0  9991
2 43659  95.0000 132.0000 0000000   0.0000 132.0000 12.77881384    15
CTC2_L_00405012-02
1 43660U 25978OG  26070.40847222  .00000000  00000+0  00000-0 0  9993
2 43660  95.0000 132.0000 0000000   0.0000 222.0000 12.77881384    17
CTC2_L_00405012-03
1 43661U 22677WZ  26070.40847222  .00000000  00000+0  00000-0 0  9997
2 43661  95.0000 132.0000 0000000   0.0000 312.0000 12.77881384    18
CTC2_L_00405012-04
1 43662U 24926PO  26070.40847222  .00000000  00000+0  00000-0 0  9997
2 43662  95.0000 132.0000 0000000   0.0000  42.0000 12.77881384    19
CTC2_L_00405013-01
1 43663U 23487EK  26070.40847222  .00000000  00000+0  00000-0 0  9999
2 43663  95.0000 144.0000 0000000   0.0000 144.0000 12.77881384    16
CTC2_L_00405013-02
1 43664U 22304IE  26070.40847222  .00000000  00000+0  00000-0 0  9997
2 43664  95.0000 144.0000 0000000   0.0000 234.0000 12.77881384    17
CTC2_L_00405013-03
1 43665U 25068IF  26070.40847222  .00000000  00000+0  00000-0 0  9998
2 43665  95.0000 144.0000 0000000   0.0000 324.0000 12.77881384    18
CTC2_L_00405013-04
1 43666U 26011CA  26070.40847222  .00000000  00000+0  00000-0 0  9998
2 43666  95.0000 144.0000 0000000   0.0000  54.0000 12.77881384    19
CTC2_L_00405014-01
1 43667U 26554XD  26070.40847222  .00000000  00000+0  00000-0 0  9991
2 43667  95.0000 156.0000 0000000   0.0000 156.0000 12.77881384    16
CTC2_L_00405014-02
1 43668U 23470CO  26070.40847222  .00000000  00000+0  00000-0 0  9996
2 43668  95.0000 156.0000 0000000   0.0000 246.0000 12.77881384    17
CTC2_L_00405014-03
1 43669U 25251YX  26070.40847222  .00000000  00000+0  00000-0 0  9996
2 43669  95.0000 156.0000 0000000   0.0000 336.0000 12.77881384    18
CTC2_L_00405014-04
1 43670U 23525XF  26070.40847222  .00000000  00000+0  00000-0 0  9990
2 43670  95.0000 156.0000 0000000   0.0000  66.0000 12.77881384    10
CTC2_L_00405015-01
1 43671U 25057HB  26070.40847222  .00000000  00000+0  00000-0 0  9993
2 43671  95.0000 168.0000 0000000   0.0000 168.0000 12.77881384    17
CTC2_L_00405015-02
1 43672U 26074KG  26070.40847222  .00000000  00000+0  00000-0 0  9994
2 43672  95.0000 168.0000 0000000   0.0000 258.0000 12.77881384    18
CTC2_L_00405015-03
1 43673U 23798B   26070.40847222  .00000000  00000+0  00000-0 0  9995
2 43673  95.0000 168.0000 0000000   0.0000 348.0000 12.77881384    19
CTC2_L_00405015-04
1 43674U 24190FD  26070.40847222  .00000000  00000+0  00000-0 0  9993
2 43674  95.0000 168.0000 0000000   0.0000  78.0000 12.77881384    10
CTC2_L_00405016-01
1 43675U 24350CS  26070.40847222  .00000000  00000+0  00000-0 0  9992
2 43675  95.0000 180.0000 0000000   0.0000 180.0000 12.77881384    19
CTC2_L_00405016-02
1 43676U 23758XN  26070.40847222  .00000000  00000+0  00000-0 0  9994
2 43676  95.0000 180.0000 0000000   0.0000 270.0000 12.77881384    10
